SL-14 R/B               
1 16792U 86046B   26036.67869043  .00000698  00000+0  77699-4 0  9993
2 16792  82.4820 110.4317 0022451 337.4146  22.6080 14.85559604121650
SL-14 R/B               
1 16882U 86055B   26036.82017721  .00000868  00000+0  97201-4 0  9998
2 16882  82.5231 156.6185 0020378  78.7159  36.7088 14.85609048114639
AJISAI (EGS)            
1 16908U 86061A   26036.85159889 -.00000094  00000+0  24797-4 0  9991
2 16908  50.0067 191.2494 0011240 205.0112 304.8482 12.44515362464032
COSMOS 1812             
1 17295U 87003A   26036.78977193  .00321319  38094-4  90525-3 0  9991
2 17295  82.4775 231.7440 0000936 328.0856  32.0361 15.93450798139368
SL-14 R/B               
1 17567U 87024B   26036.72376500  .00000732  00000+0  80638-4 0  9994
2 17567  82.5295 122.8063 0018455  11.5172 348.6463 14.86101558 83386
COSMOS 1833             
1 17589U 87027A   26036.22630911  .00000085  00000+0  71363-4 0  9991
2 17589  70.9208  34.2453 0024850 257.8554 101.9783 14.13055667  5736
SL-16 R/B               
1 17590U 87027B   26036.85865846 -.00000076  00000+0 -14088-4 0  9992
2 17590  71.0050 343.5686 0005249 197.1640 162.9307 14.17163904 10836
SL-14 R/B               
1 17912U 87038B   26036.76962160  .00000838  00000+0  94484-4 0  9991
2 17912  82.5044 326.8697 0017676 270.5638  89.3552 14.85337640 74491
COSMOS 1844             
1 17973U 87041A   26036.57866822  .00000349  00000+0  20606-3 0  9990
2 17973  70.8981 101.9097 0028786  69.5429 290.8779 14.14538106999041
SL-14 R/B               
1 18153U 87055B   26036.41532677  .00000738  00000+0  82212-4 0  9991
2 18153  82.4991  19.4454 0022085 118.1836 242.1615 14.85589100 65143
COSMOS 1867             
1 18187U 87060A   26036.02544712 -.00000028  00000+0  27219-4 0  9993
2 18187  65.0106  38.1783 0014074 276.1781  83.7700 14.31497594 15269
SL-14 R/B               
1 18749U 88001B   26036.74521917  .00000707  00000+0  78983-4 0  9991
2 18749  82.5105 225.4071 0017746 348.8861  11.1960 14.85490043 37282
