CCSDS_OMM_VERS = 2.0
CREATION_DATE  = 
ORIGINATOR     = 

OBJECT_NAME    = SL-14 R/B
OBJECT_ID      = 1986-046B
CENTER_NAME    = EARTH
REF_FRAME      = TEME
TIME_SYSTEM    = UTC
MEAN_ELEMENT_THEORY = SGP/SGP4

EPOCH          = 2026-02-05T16:17:18.853152
MEAN_MOTION    = 14.85559604
ECCENTRICITY   = .0022451
INCLINATION    = 82.4820
RA_OF_ASC_NODE = 110.4317
ARG_OF_PERICENTER = 337.4146
MEAN_ANOMALY   = 22.6080

EPHEMERIS_TYPE = 0
CLASSIFICATION_TYPE = U
NORAD_CAT_ID   = 16792
ELEMENT_SET_NO = 999
REV_AT_EPOCH   = 12165
BSTAR          = .77699E-4
MEAN_MOTION_DOT = .698E-5
MEAN_MOTION_DDOT = 0

CCSDS_OMM_VERS = 2.0
CREATION_DATE  = 
ORIGINATOR     = 

OBJECT_NAME    = SL-14 R/B
OBJECT_ID      = 1986-055B
CENTER_NAME    = EARTH
REF_FRAME      = TEME
TIME_SYSTEM    = UTC
MEAN_ELEMENT_THEORY = SGP/SGP4

EPOCH          = 2026-02-05T19:41:03.310944
MEAN_MOTION    = 14.85609048
ECCENTRICITY   = .0020378
INCLINATION    = 82.5231
RA_OF_ASC_NODE = 156.6185
ARG_OF_PERICENTER = 78.7159
MEAN_ANOMALY   = 36.7088

EPHEMERIS_TYPE = 0
CLASSIFICATION_TYPE = U
NORAD_CAT_ID   = 16882
ELEMENT_SET_NO = 999
REV_AT_EPOCH   = 11463
BSTAR          = .97201E-4
MEAN_MOTION_DOT = .868E-5
MEAN_MOTION_DDOT = 0

CCSDS_OMM_VERS = 2.0
CREATION_DATE  = 
ORIGINATOR     = 

OBJECT_NAME    = AJISAI (EGS)
OBJECT_ID      = 1986-061A
CENTER_NAME    = EARTH
REF_FRAME      = TEME
TIME_SYSTEM    = UTC
MEAN_ELEMENT_THEORY = SGP/SGP4

EPOCH          = 2026-02-05T20:26:18.144096
MEAN_MOTION    = 12.44515362
ECCENTRICITY   = .001124
INCLINATION    = 50.0067
RA_OF_ASC_NODE = 191.2494
ARG_OF_PERICENTER = 205.0112
MEAN_ANOMALY   = 304.8482

EPHEMERIS_TYPE = 0
CLASSIFICATION_TYPE = U
NORAD_CAT_ID   = 16908
ELEMENT_SET_NO = 999
REV_AT_EPOCH   = 46403
BSTAR          = .24797E-4
MEAN_MOTION_DOT = -.94E-6
MEAN_MOTION_DDOT = 0

CCSDS_OMM_VERS = 2.0
CREATION_DATE  = 
ORIGINATOR     = 

OBJECT_NAME    = COSMOS 1812
OBJECT_ID      = 1987-003A
CENTER_NAME    = EARTH
REF_FRAME      = TEME
TIME_SYSTEM    = UTC
MEAN_ELEMENT_THEORY = SGP/SGP4

EPOCH          = 2026-02-05T18:57:16.294752
MEAN_MOTION    = 15.93450798
ECCENTRICITY   = .0000936
INCLINATION    = 82.4775
RA_OF_ASC_NODE = 231.7440
ARG_OF_PERICENTER = 328.0856
MEAN_ANOMALY   = 32.0361

EPHEMERIS_TYPE = 0
CLASSIFICATION_TYPE = U
NORAD_CAT_ID   = 17295
ELEMENT_SET_NO = 999
REV_AT_EPOCH   = 13936
BSTAR          = .90525E-3
MEAN_MOTION_DOT = .321319E-2
MEAN_MOTION_DDOT = .38094E-4

CCSDS_OMM_VERS = 2.0
CREATION_DATE  = 
ORIGINATOR     = 

OBJECT_NAME    = SL-14 R/B
OBJECT_ID      = 1987-024B
CENTER_NAME    = EARTH
REF_FRAME      = TEME
TIME_SYSTEM    = UTC
MEAN_ELEMENT_THEORY = SGP/SGP4

EPOCH          = 2026-02-05T17:22:13.296000
MEAN_MOTION    = 14.86101558
ECCENTRICITY   = .0018455
INCLINATION    = 82.5295
RA_OF_ASC_NODE = 122.8063
ARG_OF_PERICENTER = 11.5172
MEAN_ANOMALY   = 348.6463

EPHEMERIS_TYPE = 0
CLASSIFICATION_TYPE = U
NORAD_CAT_ID   = 17567
ELEMENT_SET_NO = 999
REV_AT_EPOCH   = 8338
BSTAR          = .80638E-4
MEAN_MOTION_DOT = .732E-5
MEAN_MOTION_DDOT = 0

CCSDS_OMM_VERS = 2.0
CREATION_DATE  = 
ORIGINATOR     = 

OBJECT_NAME    = COSMOS 1833
OBJECT_ID      = 1987-027A
CENTER_NAME    = EARTH
REF_FRAME      = TEME
TIME_SYSTEM    = UTC
MEAN_ELEMENT_THEORY = SGP/SGP4

EPOCH          = 2026-02-05T05:25:53.107104
MEAN_MOTION    = 14.13055667
ECCENTRICITY   = .002485
INCLINATION    = 70.9208
RA_OF_ASC_NODE = 34.2453
ARG_OF_PERICENTER = 257.8554
MEAN_ANOMALY   = 101.9783

EPHEMERIS_TYPE = 0
CLASSIFICATION_TYPE = U
NORAD_CAT_ID   = 17589
ELEMENT_SET_NO = 999
REV_AT_EPOCH   = 573
BSTAR          = .71363E-4
MEAN_MOTION_DOT = .85E-6
MEAN_MOTION_DDOT = 0

CCSDS_OMM_VERS = 2.0
CREATION_DATE  = 
ORIGINATOR     = 

OBJECT_NAME    = SL-16 R/B
OBJECT_ID      = 1987-027B
CENTER_NAME    = EARTH
REF_FRAME      = TEME
TIME_SYSTEM    = UTC
MEAN_ELEMENT_THEORY = SGP/SGP4

EPOCH          = 2026-02-05T20:36:28.090944
MEAN_MOTION    = 14.17163904
ECCENTRICITY   = .0005249
INCLINATION    = 71.0050
RA_OF_ASC_NODE = 343.5686
ARG_OF_PERICENTER = 197.1640
MEAN_ANOMALY   = 162.9307

EPHEMERIS_TYPE = 0
CLASSIFICATION_TYPE = U
NORAD_CAT_ID   = 17590
ELEMENT_SET_NO = 999
REV_AT_EPOCH   = 1083
BSTAR          = -.14088E-4
MEAN_MOTION_DOT = -.76E-6
MEAN_MOTION_DDOT = 0

CCSDS_OMM_VERS = 2.0
CREATION_DATE  = 
ORIGINATOR     = 

OBJECT_NAME    = SL-14 R/B
OBJECT_ID      = 1987-038B
CENTER_NAME    = EARTH
REF_FRAME      = TEME
TIME_SYSTEM    = UTC
MEAN_ELEMENT_THEORY = SGP/SGP4

EPOCH          = 2026-02-05T18:28:15.306240
MEAN_MOTION    = 14.85337640
ECCENTRICITY   = .0017676
INCLINATION    = 82.5044
RA_OF_ASC_NODE = 326.8697
ARG_OF_PERICENTER = 270.5638
MEAN_ANOMALY   = 89.3552

EPHEMERIS_TYPE = 0
CLASSIFICATION_TYPE = U
NORAD_CAT_ID   = 17912
ELEMENT_SET_NO = 999
REV_AT_EPOCH   = 7449
BSTAR          = .94484E-4
MEAN_MOTION_DOT = .838E-5
MEAN_MOTION_DDOT = 0

CCSDS_OMM_VERS = 2.0
CREATION_DATE  = 
ORIGINATOR     = 

OBJECT_NAME    = COSMOS 1844
OBJECT_ID      = 1987-041A
CENTER_NAME    = EARTH
REF_FRAME      = TEME
TIME_SYSTEM    = UTC
MEAN_ELEMENT_THEORY = SGP/SGP4

EPOCH          = 2026-02-05T13:53:16.934208
MEAN_MOTION    = 14.14538106
ECCENTRICITY   = .0028786
INCLINATION    = 70.8981
RA_OF_ASC_NODE = 101.9097
ARG_OF_PERICENTER = 69.5429
MEAN_ANOMALY   = 290.8779

EPHEMERIS_TYPE = 0
CLASSIFICATION_TYPE = U
NORAD_CAT_ID   = 17973
ELEMENT_SET_NO = 999
REV_AT_EPOCH   = 99904
BSTAR          = .20606E-3
MEAN_MOTION_DOT = .349E-5
MEAN_MOTION_DDOT = 0

CCSDS_OMM_VERS = 2.0
CREATION_DATE  = 
ORIGINATOR     = 

OBJECT_NAME    = SL-14 R/B
OBJECT_ID      = 1987-055B
CENTER_NAME    = EARTH
REF_FRAME      = TEME
TIME_SYSTEM    = UTC
MEAN_ELEMENT_THEORY = SGP/SGP4

EPOCH          = 2026-02-05T09:58:04.232928
MEAN_MOTION    = 14.85589100
ECCENTRICITY   = .00220859
INCLINATION    = 82.4991
RA_OF_ASC_NODE = 19.4454
ARG_OF_PERICENTER = 118.1836
MEAN_ANOMALY   = 242.1615

EPHEMERIS_TYPE = 0
CLASSIFICATION_TYPE = U
NORAD_CAT_ID   = 18153
ELEMENT_SET_NO = 999
REV_AT_EPOCH   = 6514
BSTAR          = .82212057E-4
MEAN_MOTION_DOT = .738E-5
MEAN_MOTION_DDOT = 0

CCSDS_OMM_VERS = 2.0
CREATION_DATE  = 
ORIGINATOR     = 

OBJECT_NAME    = COSMOS 1867
OBJECT_ID      = 1987-060A
CENTER_NAME    = EARTH
REF_FRAME      = TEME
TIME_SYSTEM    = UTC
MEAN_ELEMENT_THEORY = SGP/SGP4

EPOCH          = 2026-02-05T00:36:38.631168
MEAN_MOTION    = 14.31497594
ECCENTRICITY   = .00140741
INCLINATION    = 65.0106
RA_OF_ASC_NODE = 38.1783
ARG_OF_PERICENTER = 276.1781
MEAN_ANOMALY   = 83.7700

EPHEMERIS_TYPE = 0
CLASSIFICATION_TYPE = U
NORAD_CAT_ID   = 18187
ELEMENT_SET_NO = 999
REV_AT_EPOCH   = 1526
BSTAR          = .27219167E-4
MEAN_MOTION_DOT = -.28E-6
MEAN_MOTION_DDOT = 0

CCSDS_OMM_VERS = 2.0
CREATION_DATE  = 
ORIGINATOR     = 

OBJECT_NAME    = SL-14 R/B
OBJECT_ID      = 1988-001B
CENTER_NAME    = EARTH
REF_FRAME      = TEME
TIME_SYSTEM    = UTC
MEAN_ELEMENT_THEORY = SGP/SGP4

EPOCH          = 2026-02-05T17:53:06.936288
MEAN_MOTION    = 14.85490043
ECCENTRICITY   = .0017746
INCLINATION    = 82.5105
RA_OF_ASC_NODE = 225.4071
ARG_OF_PERICENTER = 348.8861
MEAN_ANOMALY   = 11.1960

EPHEMERIS_TYPE = 0
CLASSIFICATION_TYPE = U
NORAD_CAT_ID   = 18749
ELEMENT_SET_NO = 999
REV_AT_EPOCH   = 3728
BSTAR          = .78983E-4
MEAN_MOTION_DOT = .707E-5
MEAN_MOTION_DDOT = 0

